[{"OBJECT_NAME":"STARLINK-31762","OBJECT_ID":"2024-080P","EPOCH":"2026-03-09T23:13:29.626464","MEAN_MOTION":15.27564601,"ECCENTRICITY":0.00013225,"INCLINATION":43.004,"RA_OF_ASC_NODE":36.4679,"ARG_OF_PERICENTER":264.2602,"MEAN_ANOMALY":95.8099,"EPHEMERIS_TYPE":0,"CLASSIFICATION_TYPE":"U","NORAD_CAT_ID":59614,"ELEMENT_SET_NO":999,"REV_AT_EPOCH":10457,"BSTAR":-0.000112403,"MEAN_MOTION_DOT":-3.352e-5,"MEAN_MOTION_DDOT":0},{"OBJECT_NAME":"OKEAN-1","OBJECT_ID":"1988-056A","EPOCH":"2026-03-09T21:19:04.260000","MEAN_MOTION":15.31672069,"ECCENTRICITY":0.00129431,"INCLINATION":82.4671,"RA_OF_ASC_NODE":262.7586,"ARG_OF_PERICENTER":168.0696,"MEAN_ANOMALY":192.0855,"EPHEMERIS_TYPE":0,"CLASSIFICATION_TYPE":"U","NORAD_CAT_ID":19274,"ELEMENT_SET_NO":999,"REV_AT_EPOCH":3511,"BSTAR":0.00038371192,"MEAN_MOTION_DOT":0.00011798,"MEAN_MOTION_DDOT":0}]
